COSMOS 2433 [GLONASS-M] 
1 32275U 07052A   26136.00612854 -.00000028  00000+0  00000+0 0  9996
2 32275  65.5957 317.0165 0001561 187.3531 172.6516  2.13104036144379
COSMOS 2432 [GLONASS-M] 
1 32276U 07052B   26140.07038166 -.00000037  00000+0  00000+0 0  9997
2 32276  65.6093 317.0067 0008152 336.0803 205.8746  2.13103097144483
COSMOS 2434 [GLONASS-M] 
1 32393U 07065A   26138.12313759  .00000069  00000+0  00000+0 0  9992
2 32393  64.3157 192.9296 0001038  15.7425  58.3480  2.13101438143135
COSMOS 2436 [GLONASS-M] 
1 32395U 07065C   26139.25878034  .00000053  00000+0  00000+0 0  9994
2 32395  64.3245 192.9633 0017159 356.4262   1.3271  2.13100199143101
COSMOS 2456 [GLONASS-M] 
1 36111U 09070A   26140.41471647 -.00000010  00000+0  00000+0 0  9995
2 36111  64.9959  71.9189 0005618 322.7213 227.3740  2.13103629127834
COSMOS 2457 [GLONASS-M] 
1 36112U 09070B   26139.29482977 -.00000012  00000+0  00000+0 0  9990
2 36112  64.9809  71.8019 0001600 139.9750  38.6507  2.13101094127817
COSMOS 2460 [GLONASS-M] 
1 36402U 10007C   26136.70942285 -.00000031  00000+0  00000+0 0  9991
2 36402  65.4389 315.5319 0002205  80.0171 277.1198  2.13106192126059
COSMOS 2476 [GLONASS-M] 
1 37867U 11064A   26140.45478531 -.00000006  00000+0  00000+0 0  9998
2 37867  65.2554  73.8072 0023373 240.9848 248.1848  2.13103715113171
COSMOS 2477 [GLONASS-M] 
1 37868U 11064B   26140.52456251 -.00000006  00000+0  00000+0 0  9992
2 37868  65.2618  73.8842 0020543 242.7271 120.3947  2.13102852113176
COSMOS 2475 [GLONASS-M] 
1 37869U 11064C   26139.35380826 -.00000008  00000+0  00000+0 0  9998
2 37869  65.2679  73.9448 0026298 254.5881 245.6103  2.13101637113151
COSMOS 2485 [GLONASS-M] 
1 39155U 13019A   26139.28515061 -.00000007  00000+0  00000+0 0  9992
2 39155  65.4047  74.5741 0023806 236.3493 123.4112  2.13103244101666
COSMOS 2492 [GLONASS-M] 
1 39620U 14012A   26138.30555784 -.00000035  00000+0  00000+0 0  9992
2 39620  65.3152 314.9514 0010963 329.1822  30.7487  2.13103191 94606
COSMOS 2500 [GLONASS-M] 
1 40001U 14032A   26133.78320435 -.00000016  00000+0  00000+0 0  9998
2 40001  65.2537 314.8550 0006428 181.4566 178.5543  2.13106574 92724
COSMOS 2501 [GLONASS-K] 
1 40315U 14075A   26138.73741775  .00000061  00000+0  00000+0 0  9996
2 40315  63.6142 191.3916 0022288 211.1583 148.7943  2.13101330 89221
COSMOS 2514 [GLONASS-M] 
1 41330U 16008A   26139.19105092 -.00000036  00000+0  00000+0 0  9992
2 41330  65.0395 314.0013 0010228 196.8737 163.0853  2.13102532 80000
COSMOS 2522 [GLONASS-M] 
1 42939U 17055A   26139.02891852  .00000056  00000+0  00000+0 0  9990
2 42939  64.0783 192.8783 0009756 218.2478 141.7671  2.13104887 67356
COSMOS 2527 [GLONASS-M] 
1 43508U 18053A   26139.92893222 -.00000005  00000+0  00000+0 0  9999
2 43508  65.5631  74.8497 0007868 245.7769 114.1305  2.13101953 61676
COSMOS 2529 [GLONASS-M] 
1 43687U 18086A   26138.14863914  .00000068  00000+0  00000+0 0  9999
2 43687  64.2929 193.6085 0011215 256.0071 103.9560  2.13102075 58643
COSMOS 2534 [GLONASS-M] 
1 44299U 19030A   26140.54951485  .00000035  00000+0  00000+0 0  9991
2 44299  64.3665 193.5471 0012785 275.7336 260.6479  2.13102278 54331
COSMOS 2544 [GLONASS-M] 
1 44850U 19088A   26137.99658669 -.00000010  00000+0  00000+0 0  9994
2 44850  65.5497  74.7379 0014015 261.0437  98.7800  2.13102034 50070
COSMOS 2545 [GLONASS-M] 
1 45358U 20018A   26135.84549925 -.00000029  00000+0  00000+0 0  9999
2 45358  64.3753 313.5554 0007490 233.4064 126.5264  2.13102449 47972
COSMOS 2547 [GLONASS-K] 
1 46805U 20075A   26140.25813566  .00000039  00000+0  00000+0 0  9996
2 46805  64.5974 193.4075 0008922 237.8054 122.1862  2.13100193 43312
COSMOS 2557 [GLONASS-K] 
1 52984U 22075A   26139.95334906 -.00000039  00000+0  00000+0 0  9995
2 52984  64.3157 315.4807 0010110 278.6015  81.2783  2.13101935 30115
COSMOS 2559 [GLONASS-K] 
1 54031U 22130A   26139.30364975 -.00000039  00000+0  00000+0 0  9990
2 54031  64.2945 315.5867 0012125 176.3720 183.6319  2.13101396 28071
COSMOS 2564 [GLONASS-M] 
1 54377U 22161A   26140.08555985  .00000041  00000+0  00000+0 0  9999
2 54377  64.7394 193.6445 0011711 222.7924 137.1954  2.13101979 27037
COSMOS 2569 [GLONASS-K2]
1 57517U 23114A   26140.09792709 -.00000007  00000+0  00000+0 0  9998
2 57517  65.2873  73.5672 0011701 296.4919  63.3799  2.13103655 21666
COSMOS 2584 [GLONASS-K2]
1 63130U 25042A   26140.45406615 -.00000007  00000+0  00000+0 0  9996
2 63130  65.0696  73.7444 0006145 233.1697 126.7665  2.13103740  9455
COSMOS 2596 [GLONASS-K1]
1 65590U 25206B   26140.53574256 -.00000038  00000+0  00000+0 0  9990
2 65590  64.6520 315.9473 0011202 315.4977 223.7535  2.13100430  5325
